IRIDIUM 171             
1 43929U 19002H   23234.02914862  .00000088  00000+0  24293-4 0  9994
2 43929  86.3933  64.2995 0002011  85.4969 274.6456 14.34218079241304
IRIDIUM 170             
1 43930U 19002J   23234.04660049  .00000401  00000+0  59754-4 0  9992
2 43930  86.6054  64.1566 0002438  90.1439 270.0058 14.72251791247690
IRIDIUM 167             
1 43931U 19002K   23233.53442693  .00000089  00000+0  24794-4 0  9997
2 43931  86.3924  64.3278 0002094  85.6764 274.4671 14.34218415241231
IRIDIUM 181             
1 56726U 23068S   23234.10497781  .00000379  00000+0  10614-3 0  9999
2 56726  86.8600 103.3055 0003354  67.5595 292.5962 14.43576509 13840
IRIDIUM 177             
1 56727U 23068T   23233.66837903  .00001432  00000+0  18506-3 0  9993
2 56727  86.1946  98.0499 0002089  81.3015 278.8443 14.80225781 13928
IRIDIUM 174             
1 56728U 23068U   23234.06854794  .00001445  00000+0  18670-3 0  9992
2 56728  86.1952  97.9391 0002205  89.3259 270.8215 14.80229327 13988
IRIDIUM 178             
1 56729U 23068V   23233.31903642  .00001425  00000+0  18411-3 0  9998
2 56729  86.5753 101.5063 0002164  87.1717 272.9752 14.80221210 13879
IRIDIUM 179             
1 56730U 23068W   23233.31361718  .00001409  00000+0  18207-3 0  9997
2 56730  86.6762 101.8554 0002172  84.5850 275.5619 14.80225403 13877
